{"type": "FeatureCollection", "features": [ {"type": "Feature", "properties": {"norad_id": 34546, "name": "COSMOS 2251 DEB", "group": "cosmos-2251-debris", "lat": 44.01189323474428, "lon": 53.601717145398105, "alt_km": 751.9943386689956, "timestamp": "2025-12-12T11:38:31.807164+00:00", "meta": {"OBJECT_NAME": "COSMOS 2251 DEB", "OBJECT_ID": "1993-036UG", "EPOCH": "2025-12-11T22:18:41.199264", "MEAN_MOTION": 14.45406778, "ECCENTRICITY": 0.0021921, "INCLINATION": 74.0311, "RA_OF_ASC_NODE": 250.6964, "ARG_OF_PERICENTER": 324.5056, "MEAN_ANOMALY": 160.0175, "EPHEMERIS_TYPE": 0, "CLASSIFICATION_TYPE": "U", "NORAD_CAT_ID": 34546, "ELEMENT_SET_NO": 999, "REV_AT_EPOCH": 88014, "BSTAR": 0.0010497, "MEAN_MOTION_DOT": 3.679e-05, "MEAN_MOTION_DDOT": 0}, "tle": {"line1": "1 34546U 93036UG  25345.92964351  .00003679  00000+0  10497-2 0  9998", "line2": "2 34546  74.0311 250.6964 0021921 324.5056 160.0175 14.45406778880149"}}, "geometry": {"type": "Point", "coordinates": [53.601717145398105, 44.01189323474428]}}, {"type": "Feature", "properties": {"norad_id": 34547, "name": "COSMOS 2251 DEB", "group": "cosmos-2251-debris", "lat": -58.38921679936252, "lon": 73.49202591816066, "alt_km": 666.0830443432005, "timestamp": "2025-12-12T11:38:31.807174+00:00", "meta": {"OBJECT_NAME": "COSMOS 2251 DEB", "OBJECT_ID": "1993-036UH", "EPOCH": "2025-12-11T14:43:32.841120", "MEAN_MOTION": 14.72298648, "ECCENTRICITY": 0.00175909, "INCLINATION": 74.0303, "RA_OF_ASC_NODE": 102.9163, "ARG_OF_PERICENTER": 182.0571, "MEAN_ANOMALY": 178.0532, "EPHEMERIS_TYPE": 0, "CLASSIFICATION_TYPE": "U", "NORAD_CAT_ID": 34547, "ELEMENT_SET_NO": 999, "REV_AT_EPOCH": 88505, "BSTAR": 0.003400892, "MEAN_MOTION_DOT": 0.00021587, "MEAN_MOTION_DDOT": 0}, "tle": {"line1": "1 34547U 93036UH  25345.61357455  .00021587  00000+0  34009-2 0  9999", "line2": "2 34547  74.0303 102.9163 0017590 182.0571 178.0532 14.72298648885053"}}, "geometry": {"type": "Point", "coordinates": [73.49202591816066, -58.38921679936252]}}, {"type": "Feature", "properties": {"norad_id": 34553, "name": "COSMOS 2251 DEB", "group": "cosmos-2251-debris", "lat": -26.147546217924244, "lon": 20.46075352474885, "alt_km": 699.5146193050405, "timestamp": "2025-12-12T11:38:31.807185+00:00", "meta": {"OBJECT_NAME": "COSMOS 2251 DEB", "OBJECT_ID": "1993-036UP", "EPOCH": "2025-12-11T17:06:02.921184", "MEAN_MOTION": 14.57707101, "ECCENTRICITY": 0.00193719, "INCLINATION": 74.0247, "RA_OF_ASC_NODE": 193.8454, "ARG_OF_PERICENTER": 271.2686, "MEAN_ANOMALY": 203.5704, "EPHEMERIS_TYPE": 0, "CLASSIFICATION_TYPE": "U", "NORAD_CAT_ID": 34553, "ELEMENT_SET_NO": 999, "REV_AT_EPOCH": 88081, "BSTAR": 0.0015912729, "MEAN_MOTION_DOT": 7.262e-05, "MEAN_MOTION_DDOT": 0}, "tle": {"line1": "1 34553U 93036UP  25345.71253381  .00007262  00000+0  15913-2 0  9997", "line2": "2 34553  74.0247 193.8454 0019371 271.2686 203.5704 14.57707101880812"}}, "geometry": {"type": "Point", "coordinates": [20.46075352474885, -26.147546217924244]}}, {"type": "Feature", "properties": {"norad_id": 34554, "name": "COSMOS 2251 DEB", "group": "cosmos-2251-debris", "lat": -27.597063921320448, "lon": -69.14353481311166, "alt_km": 756.6107514315454, "timestamp": "2025-12-12T11:38:31.807195+00:00", "meta": {"OBJECT_NAME": "COSMOS 2251 DEB", "OBJECT_ID": "1993-036UQ", "EPOCH": "2025-12-11T20:53:13.392960", "MEAN_MOTION": 14.37935968, "ECCENTRICITY": 0.002295, "INCLINATION": 74.0386, "RA_OF_ASC_NODE": 300.592, "ARG_OF_PERICENTER": 3.1494, "MEAN_ANOMALY": 27.0274, "EPHEMERIS_TYPE": 0, "CLASSIFICATION_TYPE": "U", "NORAD_CAT_ID": 34554, "ELEMENT_SET_NO": 999, "REV_AT_EPOCH": 87743, "BSTAR": 0.00056325, "MEAN_MOTION_DOT": 1.681e-05, "MEAN_MOTION_DDOT": 0}, "tle": {"line1": "1 34554U 93036UQ  25345.87029390  .00001681  00000+0  56325-3 0  9998", "line2": "2 34554  74.0386 300.5920 0022950   3.1494  27.0274 14.37935968877435"}}, "geometry": {"type": "Point", "coordinates": [-69.14353481311166, -27.597063921320448]}}, {"type": "Feature", "properties": {"norad_id": 34556, "name": "COSMOS 2251 DEB", "group": "cosmos-2251-debris", "lat": 73.67531779508823, "lon": -132.78495072737505, "alt_km": 629.0967974603391, "timestamp": "2025-12-12T11:38:31.807222+00:00", "meta": {"OBJECT_NAME": "COSMOS 2251 DEB", "OBJECT_ID": "1993-036US", "EPOCH": "2025-12-11T15:46:46.515648", "MEAN_MOTION": 14.77747642, "ECCENTRICITY": 0.00078788, "INCLINATION": 74.0159, "RA_OF_ASC_NODE": 126.9824, "ARG_OF_PERICENTER": 187.1045, "MEAN_ANOMALY": 185.2844, "EPHEMERIS_TYPE": 0, "CLASSIFICATION_TYPE": "U", "NORAD_CAT_ID": 34556, "ELEMENT_SET_NO": 999, "REV_AT_EPOCH": 88313, "BSTAR": 0.0034463135, "MEAN_MOTION_DOT": 0.00024795, "MEAN_MOTION_DDOT": 0}, "tle": {"line1": "1 34556U 93036US  25345.65748282  .00024795  00000+0  34463-2 0  9993", "line2": "2 34556  74.0159 126.9824 0007878 187.1045 185.2844 14.77747642883133"}}, "geometry": {"type": "Point", "coordinates": [-132.78495072737505, 73.67531779508823]}}, {"type": "Feature", "properties": {"norad_id": 34560, "name": "COSMOS 2251 DEB", "group": "cosmos-2251-debris", "lat": -7.630559605792748, "lon": 140.42820761125756, "alt_km": 664.2604375703968, "timestamp": "2025-12-12T11:38:31.807236+00:00", "meta": {"OBJECT_NAME": "COSMOS 2251 DEB", "OBJECT_ID": "1993-036UW", "EPOCH": "2025-12-11T19:56:42.891936", "MEAN_MOTION": 14.72099094, "ECCENTRICITY": 0.00146847, "INCLINATION": 74.0167, "RA_OF_ASC_NODE": 143.9021, "ARG_OF_PERICENTER": 225.3472, "MEAN_ANOMALY": 261.9903, "EPHEMERIS_TYPE": 0, "CLASSIFICATION_TYPE": "U", "NORAD_CAT_ID": 34560, "ELEMENT_SET_NO": 999, "REV_AT_EPOCH": 88238, "BSTAR": 0.0034589559, "MEAN_MOTION_DOT": 0.0002184, "MEAN_MOTION_DDOT": 0}, "tle": {"line1": "1 34560U 93036UW  25345.83105199  .00021840  00000+0  34590-2 0  9991", "line2": "2 34560  74.0167 143.9021 0014684 225.3472 261.9903 14.72099094882387"}}, "geometry": {"type": "Point", "coordinates": [140.42820761125756, -7.630559605792748]}}, {"type": "Feature", "properties": {"norad_id": 34563, "name": "COSMOS 2251 DEB", "group": "cosmos-2251-debris", "lat": 37.604031153120026, "lon": 11.448286158084152, "alt_km": 743.1130211549153, "timestamp": "2025-12-12T11:38:31.807247+00:00", "meta": {"OBJECT_NAME": "COSMOS 2251 DEB", "OBJECT_ID": "1993-036UZ", "EPOCH": "2025-12-12T01:44:17.025792", "MEAN_MOTION": 14.46506918, "ECCENTRICITY": 0.0013895, "INCLINATION": 74.0377, "RA_OF_ASC_NODE": 204.954, "ARG_OF_PERICENTER": 298.8498, "MEAN_ANOMALY": 213.6471, "EPHEMERIS_TYPE": 0, "CLASSIFICATION_TYPE": "U", "NORAD_CAT_ID": 34563, "ELEMENT_SET_NO": 999, "REV_AT_EPOCH": 88187, "BSTAR": 0.00069451, "MEAN_MOTION_DOT": 2.477e-05, "MEAN_MOTION_DDOT": 0}, "tle": {"line1": "1 34563U 93036UZ  25346.07241928  .00002477  00000+0  69451-3 0  9992", "line2": "2 34563  74.0377 204.9540 0013895 298.8498 213.6471 14.46506918881879"}}, "geometry": {"type": "Point", "coordinates": [11.448286158084152, 37.604031153120026]}}, {"type": "Feature", "properties": {"norad_id": 34564, "name": "COSMOS 2251 DEB", "group": "cosmos-2251-debris", "lat": -68.51482399894013, "lon": -168.18688900622283, "alt_km": 755.891605498744, "timestamp": "2025-12-12T11:38:31.807257+00:00", "meta": {"OBJECT_NAME": "COSMOS 2251 DEB", "OBJECT_ID": "1993-036VA", "EPOCH": "2025-12-12T04:22:21.006048", "MEAN_MOTION": 14.40688498, "ECCENTRICITY": 0.0019006, "INCLINATION": 74.0325, "RA_OF_ASC_NODE": 239.0431, "ARG_OF_PERICENTER": 343.0333, "MEAN_ANOMALY": 171.374, "EPHEMERIS_TYPE": 0, "CLASSIFICATION_TYPE": "U", "NORAD_CAT_ID": 34564, "ELEMENT_SET_NO": 999, "REV_AT_EPOCH": 87998, "BSTAR": 0.00038443, "MEAN_MOTION_DOT": 1.204e-05, "MEAN_MOTION_DDOT": 0}, "tle": {"line1": "1 34564U 93036VA  25346.18218757  .00001204  00000+0  38443-3 0  9993", "line2": "2 34564  74.0325 239.0431 0019006 343.0333 171.3740 14.40688498879988"}}, "geometry": {"type": "Point", "coordinates": [-168.18688900622283, -68.51482399894013]}}, {"type": "Feature", "properties": {"norad_id": 34567, "name": "COSMOS 2251 DEB", "group": "cosmos-2251-debris", "lat": -12.755576376268582, "lon": 153.52418766948875, "alt_km": 838.44902473407, "timestamp": "2025-12-12T11:38:31.807267+00:00", "meta": {"OBJECT_NAME": "COSMOS 2251 DEB", "OBJECT_ID": "1993-036VD", "EPOCH": "2025-12-11T22:48:25.333344", "MEAN_MOTION": 14.24015105, "ECCENTRICITY": 0.0074476, "INCLINATION": 74.0399, "RA_OF_ASC_NODE": 158.2009, "ARG_OF_PERICENTER": 232.644, "MEAN_ANOMALY": 252.8964, "EPHEMERIS_TYPE": 0, "CLASSIFICATION_TYPE": "U", "NORAD_CAT_ID": 34567, "ELEMENT_SET_NO": 999, "REV_AT_EPOCH": 87113, "BSTAR": 0.00033899, "MEAN_MOTION_DOT": 7.75e-06, "MEAN_MOTION_DDOT": 0}, "tle": {"line1": "1 34567U 93036VD  25345.95029321  .00000775  00000+0  33899-3 0  9999", "line2": "2 34567  74.0399 158.2009 0074476 232.6440 252.8964 14.24015105871132"}}, "geometry": {"type": "Point", "coordinates": [153.52418766948875, -12.755576376268582]}}, {"type": "Feature", "properties": {"norad_id": 34569, "name": "COSMOS 2251 DEB", "group": "cosmos-2251-debris", "lat": 25.684530053667658, "lon": 10.660303112610121, "alt_km": 873.4673253365154, "timestamp": "2025-12-12T11:38:31.807278+00:00", "meta": {"OBJECT_NAME": "COSMOS 2251 DEB", "OBJECT_ID": "1993-036VF", "EPOCH": "2025-12-11T14:51:14.626656", "MEAN_MOTION": 14.24748288, "ECCENTRICITY": 0.01572567, "INCLINATION": 73.9903, "RA_OF_ASC_NODE": 200.1629, "ARG_OF_PERICENTER": 28.8066, "MEAN_ANOMALY": 1.9109, "EPHEMERIS_TYPE": 0, "CLASSIFICATION_TYPE": "U", "NORAD_CAT_ID": 34569, "ELEMENT_SET_NO": 999, "REV_AT_EPOCH": 86952, "BSTAR": 0.00071468017, "MEAN_MOTION_DOT": 1.868e-05, "MEAN_MOTION_DDOT": 0}, "tle": {"line1": "1 34569U 93036VF  25345.61891929  .00001868  00000+0  71468-3 0  9993", "line2": "2 34569  73.9903 200.1629 0157256  28.8066   1.9109 14.24748288869524"}}, "geometry": {"type": "Point", "coordinates": [10.660303112610121, 25.684530053667658]}}]}